{
  "type": "FeatureCollection",
  "features": [
    {
      "type": "Feature",
      "properties": {
        "norad_id": 37836,
        "name": "EUTELSAT 16A",
        "group": "eutelsat",
        "lat": 0.07902703990853158,
        "lon": 88.81801327291046,
        "alt_km": 35811.248660308906,
        "timestamp": "2025-12-22T22:44:20.622309+00:00",
        "meta_object_name": "EUTELSAT 16A",
        "meta_object_id": "2011-057A",
        "meta_epoch": "2025-12-22T04:40:49.373760",
        "meta_mean_motion": 1.0026998,
        "meta_eccentricity": 0.00058547,
        "meta_inclination": 0.0583,
        "meta_ra_of_asc_node": 341.8849,
        "meta_arg_of_pericenter": 290.8283,
        "meta_mean_anomaly": 264.4899,
        "meta_ephemeris_type": 0,
        "meta_classification_type": "U",
        "meta_norad_cat_id": 37836,
        "meta_element_set_no": 999,
        "meta_rev_at_epoch": 555,
        "meta_bstar": 0,
        "meta_mean_motion_dot": 1.26e-06,
        "meta_mean_motion_ddot": 0,
        "tle_line1": "1 37836U 11057A   25356.19501590  .00000126  00000+0  00000+0 0  9999",
        "tle_line2": "2 37836   0.0583 341.8849 0005854 290.8283 264.4899  1.00269980  5558"
      },
      "geometry": {
        "type": "Point",
        "coordinates": [
          88.81801327291046,
          0.07902703990853158
        ]
      }
    },
    {
      "type": "Feature",
      "properties": {
        "norad_id": 38992,
        "name": "EUTELSAT 21B",
        "group": "eutelsat",
        "lat": 0.08661934729215633,
        "lon": 94.40871349393427,
        "alt_km": 35800.34692057907,
        "timestamp": "2025-12-22T22:44:20.622320+00:00",
        "meta_object_name": "EUTELSAT 21B",
        "meta_object_id": "2012-062B",
        "meta_epoch": "2025-12-22T08:07:52.046112",
        "meta_mean_motion": 1.00269883,
        "meta_eccentricity": 0.00032615,
        "meta_inclination": 0.0672,
        "meta_ra_of_asc_node": 343.8732,
        "meta_arg_of_pericenter": 291.9301,
        "meta_mean_anomaly": 318.8965,
        "meta_ephemeris_type": 0,
        "meta_classification_type": "U",
        "meta_norad_cat_id": 38992,
        "meta_element_set_no": 999,
        "meta_rev_at_epoch": 4805,
        "meta_bstar": 0,
        "meta_mean_motion_dot": 1.52e-06,
        "meta_mean_motion_ddot": 0,
        "tle_line1": "1 38992U 12062B   25356.33879683  .00000152  00000+0  00000+0 0  9996",
        "tle_line2": "2 38992   0.0672 343.8732 0003261 291.9301 318.8965  1.00269883 48059"
      },
      "geometry": {
        "type": "Point",
        "coordinates": [
          94.40871349393427,
          0.08661934729215633
        ]
      }
    },
    {
      "type": "Feature",
      "properties": {
        "norad_id": 39020,
        "name": "EUTELSAT 70B",
        "group": "eutelsat",
        "lat": 0.06267001208315946,
        "lon": 143.2676027727629,
        "alt_km": 35792.95198137467,
        "timestamp": "2025-12-22T22:44:20.622333+00:00",
        "meta_object_name": "EUTELSAT 70B",
        "meta_object_id": "2012-069A",
        "meta_epoch": "2025-12-22T13:30:00.000000",
        "meta_mean_motion": 1.00271646,
        "meta_eccentricity": 0.00042232,
        "meta_inclination": 0.0622,
        "meta_ra_of_asc_node": 9.6173,
        "meta_arg_of_pericenter": 246.0097,
        "meta_mean_anomaly": 108.7272,
        "meta_ephemeris_type": 0,
        "meta_classification_type": "U",
        "meta_norad_cat_id": 39020,
        "meta_element_set_no": 999,
        "meta_rev_at_epoch": 4773,
        "meta_bstar": 0,
        "meta_mean_motion_dot": -2.2e-07,
        "meta_mean_motion_ddot": 0,
        "tle_line1": "1 39020U 12069A   25356.56250000 -.00000022  00000+0  00000+0 0  9994",
        "tle_line2": "2 39020   0.0622   9.6173 0004223 246.0097 108.7272  1.00271646 47736"
      },
      "geometry": {
        "type": "Point",
        "coordinates": [
          143.2676027727629,
          0.06267001208315946
        ]
      }
    },
    {
      "type": "Feature",
      "properties": {
        "norad_id": 39122,
        "name": "EUTELSAT 117 WEST A",
        "group": "eutelsat",
        "lat": -0.01000967266911533,
        "lon": -43.94488269477047,
        "alt_km": 35778.13559547213,
        "timestamp": "2025-12-22T22:44:20.622345+00:00",
        "meta_object_name": "EUTELSAT 117 WEST A",
        "meta_object_id": "2013-012A",
        "meta_epoch": "2025-12-22T10:53:51.150336",
        "meta_mean_motion": 1.00270741,
        "meta_eccentricity": 0.00026277,
        "meta_inclination": 0.0258,
        "meta_ra_of_asc_node": 308.677,
        "meta_arg_of_pericenter": 324.9754,
        "meta_mean_anomaly": 224.282,
        "meta_ephemeris_type": 0,
        "meta_classification_type": "U",
        "meta_norad_cat_id": 39122,
        "meta_element_set_no": 999,
        "meta_rev_at_epoch": 4666,
        "meta_bstar": 0,
        "meta_mean_motion_dot": 9e-08,
        "meta_mean_motion_ddot": 0,
        "tle_line1": "1 39122U 13012A   25356.45406424  .00000009  00000+0  00000+0 0  9991",
        "tle_line2": "2 39122   0.0258 308.6770 0002627 324.9754 224.2820  1.00270741 46660"
      },
      "geometry": {
        "type": "Point",
        "coordinates": [
          -43.94488269477047,
          -0.01000967266911533
        ]
      }
    },
    {
      "type": "Feature",
      "properties": {
        "norad_id": 39163,
        "name": "EUTELSAT 7B",
        "group": "eutelsat",
        "lat": 0.08755731155353695,
        "lon": 79.86130271454803,
        "alt_km": 35794.90439810862,
        "timestamp": "2025-12-22T22:44:20.622358+00:00",
        "meta_object_name": "EUTELSAT 7B",
        "meta_object_id": "2013-022A",
        "meta_epoch": "2025-12-22T08:03:44.941248",
        "meta_mean_motion": 1.00271186,
        "meta_eccentricity": 0.00044202,
        "meta_inclination": 0.0652,
        "meta_ra_of_asc_node": 3.5391,
        "meta_arg_of_pericenter": 318.6829,
        "meta_mean_anomaly": 256.8512,
        "meta_ephemeris_type": 0,
        "meta_classification_type": "U",
        "meta_norad_cat_id": 39163,
        "meta_element_set_no": 999,
        "meta_rev_at_epoch": 4617,
        "meta_bstar": 0,
        "meta_mean_motion_dot": 7e-07,
        "meta_mean_motion_ddot": 0,
        "tle_line1": "1 39163U 13022A   25356.33593682  .00000070  00000+0  00000+0 0  9995",
        "tle_line2": "2 39163   0.0652   3.5391 0004420 318.6829 256.8512  1.00271186 46178"
      },
      "geometry": {
        "type": "Point",
        "coordinates": [
          79.86130271454803,
          0.08755731155353695
        ]
      }
    },
    {
      "type": "Feature",
      "properties": {
        "norad_id": 39612,
        "name": "EXPRESS-AT1",
        "group": "eutelsat",
        "lat": 0.03295193283158776,
        "lon": 128.81870588489514,
        "alt_km": 35783.1660075814,
        "timestamp": "2025-12-22T22:44:20.622370+00:00",
        "meta_object_name": "EXPRESS-AT1",
        "meta_object_id": "2014-010A",
        "meta_epoch": "2025-12-22T10:00:26.265888",
        "meta_mean_motion": 1.00271252,
        "meta_eccentricity": 7.176e-05,
        "meta_inclination": 0.023,
        "meta_ra_of_asc_node": 347.1334,
        "meta_arg_of_pericenter": 146.8279,
        "meta_mean_anomaly": 163.3666,
        "meta_ephemeris_type": 0,
        "meta_classification_type": "U",
        "meta_norad_cat_id": 39612,
        "meta_element_set_no": 999,
        "meta_rev_at_epoch": 4304,
        "meta_bstar": 0,
        "meta_mean_motion_dot": 0,
        "meta_mean_motion_ddot": 0,
        "tle_line1": "1 39612U 14010A   25356.41697067  .00000000  00000+0  00000+0 0  9996",
        "tle_line2": "2 39612   0.0230 347.1334 0000717 146.8279 163.3666  1.00271252 43047"
      },
      "geometry": {
        "type": "Point",
        "coordinates": [
          128.81870588489514,
          0.03295193283158776
        ]
      }
    },
    {
      "type": "Feature",
      "properties": {
        "norad_id": 39613,
        "name": "EXPRESS-AT2",
        "group": "eutelsat",
        "lat": -0.0208828773437866,
        "lon": -147.33665562794064,
        "alt_km": 35783.34001649577,
        "timestamp": "2025-12-22T22:44:20.622383+00:00",
        "meta_object_name": "EXPRESS-AT2",
        "meta_object_id": "2014-010B",
        "meta_epoch": "2025-12-22T14:26:38.728896",
        "meta_mean_motion": 1.00273838,
        "meta_eccentricity": 0.00014474,
        "meta_inclination": 0.0173,
        "meta_ra_of_asc_node": 293.9079,
        "meta_arg_of_pericenter": 347.7112,
        "meta_mean_anomaly": 166.2991,
        "meta_ephemeris_type": 0,
        "meta_classification_type": "U",
        "meta_norad_cat_id": 39613,
        "meta_element_set_no": 999,
        "meta_rev_at_epoch": 4273,
        "meta_bstar": 0,
        "meta_mean_motion_dot": -2.59e-06,
        "meta_mean_motion_ddot": 0,
        "tle_line1": "1 39613U 14010B   25356.60183714 -.00000259  00000+0  00000+0 0  9994",
        "tle_line2": "2 39613   0.0173 293.9079 0001447 347.7112 166.2991  1.00273838 42737"
      },
      "geometry": {
        "type": "Point",
        "coordinates": [
          -147.33665562794064,
          -0.0208828773437866
        ]
      }
    }
  ]
}